#aV2019  8 10  0  0  0.00000000     288 DD+AD WGS84 FIT  NGA
## 2065 518400.00000000   300.00000000 58705 0.0000000000000
+   31     1  2  3  5  6  7  8  9 10 11 12 13 14 15 16 17 18
+         19 20 21 22 23 24 25 26 27 28 29 30 31 32  0  0  0
+          0  0  0  0  0  0  0  0  0  0  0  0  0  0  0  0  0
+          0  0  0  0  0  0  0  0  0  0  0  0  0  0  0  0  0
+          0  0  0  0  0  0  0  0  0  0  0  0  0  0  0  0  0
++         2  2  2  2  2  2  2  2  2  2  2  2  2  2  2  2  2
++         2  2  2  2  2  2  2  2  2  2  2  2  2  2  0  0  0
++         0  0  0  0  0  0  0  0  0  0  0  0  0  0  0  0  0
++         0  0  0  0  0  0  0  0  0  0  0  0  0  0  0  0  0
++         0  0  0  0  0  0  0  0  0  0  0  0  0  0  0  0  0
%c cc cc ccc ccc cccc cccc cccc cccc ccccc ccccc ccccc ccccc
%c cc cc ccc ccc cccc cccc cccc cccc ccccc ccccc ccccc ccccc
%f  0.0000000  0.000000000  0.00000000000  0.000000000000000
%f  0.0000000  0.000000000  0.00000000000  0.000000000000000
%i    0    0    0    0      0      0      0      0         0
%i    0    0    0    0      0      0      0      0         0
/*      NGA, ST. LOUIS,MO.                                  
/*   EPHEMERIS COMPUTED FROM 2 DAYS OF DATA                 
/*   EPOCHA v5 SMOOTHER                                     
/*   G1762 IERS2010 SATAF SATAPC                            
*  2019  8 10  5 15  0.00000000
P  1 -22496.830071 -14447.595803   -120.193791    -92.218458                    
V  1   1028.658055  -1777.313498 -31885.545803     -0.113280                    
P  2   7945.495161  18659.902039  17834.321517   -279.556969                    
V  2 -19535.328133  -8898.128499  18521.751635     -0.084113                    
P  3 -13117.819803 -12243.005376  19563.647960     -0.461764                    
V  3   2135.728166 -24845.440201 -13991.868004     -0.028477                    
P  5   3067.956610  25872.194270  -4698.368473     -0.511033                    
V  5  -3288.391443   5811.475137  30904.302561     -0.002686                    
P  6  -7729.092964  12738.499126  22026.020737    -20.261204                    
V  6 -23598.764819 -14742.912611    275.373306     -0.117483                    
P  7 -22849.735852  -3720.542222 -13164.650251    -82.078053                    
V  7 -13093.453883 -11046.439797  24843.730772     -0.078371                    
P  8 -12331.055645  -9917.516406 -21336.059655     -2.080834                    
V  8  23545.042058 -13408.720995  -7162.265524     -0.014143                    
P  9 -24343.173862   6541.128021   8341.318142     -3.037808                    
V  9   7984.434793  -7615.695137  29120.724294     -0.088404                    
P 10  11491.608074 -17984.581596 -15612.965454     -8.728621                    
V 10   1332.226587  20076.682428 -22259.582017     -0.139568                    
P 11 -22763.860224  -9981.658351  -9487.814113   -539.105743                    
V 11  11892.907963  -2730.071677 -27469.197432      0.099856                    
P 12  10467.726271  16153.772842  18158.002131    215.548636                    
V 12  -3646.932735  23127.800008 -18100.107278     -0.037025                    
P 13   1135.522505  15504.581000 -21638.270554    -50.437157                    
V 13 -25599.367274   9207.748076   5338.285824      0.018934                    
P 14  13240.790653 -17369.580171  15313.434888    -67.323284                    
V 14  18206.811401  -5608.794761 -22769.080199      0.018787                    
P 15  13998.025571   9466.207892 -20833.121953   -295.162649                    
V 15 -21244.257966  14818.598198  -7248.301581      0.025709                    
P 16    228.508400 -25966.680839  -4515.381616    -63.670064                    
V 16   3094.896447  -5208.173013  31830.293190     -0.033188                    
P 17 -19580.455780  15645.684913   9064.488931    104.129063                    
V 17 -10713.254437   2867.766188 -29508.703753      0.069328                    
P 18 -18116.619875 -17518.548612  -9070.423164     76.688167                    
V 18  10655.706583   3066.429817 -28702.721825      0.029966                    
P 19 -15923.790644  16190.558411  13506.330586   -282.887857                    
V 19 -16974.177177   4992.035178 -25383.178730      0.050074                    
P 20  14488.902884  -8945.645591 -20451.208867    526.387537                    
V 20   3346.957839  25696.077619  -9081.286668      0.001673                    
P 21  20481.614401  -1780.267793 -15929.802731   -139.101320                    
V 21  17951.290504  12631.517382  20831.834450      0.066943                    
P 22 -11793.339833 -18846.521419  14823.883388   -742.010142                    
V 22   1957.881472 -18575.617546 -22308.888267     -0.045240                    
P 23 -19578.164880  -4085.825328  18007.553430   -172.975725                    
V 23  18565.238569 -12084.500978  17390.720532      0.019138                    
P 24  22034.835206  14873.242728  -3082.462025     -0.585208                    
V 24  -4791.295400    997.352323 -30698.515607     -0.005793                    
P 25  14877.955735   1337.065447  21753.505324     -6.475949                    
V 25  -1109.628122  28077.946444   -714.282611     -0.021754                    
P 26   4843.634375 -25215.319260   6395.739361     11.496454                    
V 26   3059.907249   8230.936641  30227.950821      0.090365                    
P 27   1476.667661 -16580.028839 -20736.397641    -19.418835                    
V 27  23474.572050 -11445.273817  11172.470904     -0.113815                    
P 28 -12350.867852  17728.444973 -14910.979013    765.033996                    
V 28    879.042152 -19988.857781 -23453.786557     -0.008338                    
P 29  23966.052197  -2628.219649  11129.980269    128.934398                    
V 29 -12202.844146   7365.503390  27901.715219     -0.099034                    
P 30 -16566.766796   6184.311087 -19842.343689    -16.545321                    
V 30 -20128.871531 -15345.153353  11808.272807     -0.077571                    
P 31   6698.188681 -13792.248898  21656.337446     18.383840                    
V 31  23131.207004  14968.014890   2816.313974     -0.026167                    
P 32  19145.291745 -16577.942717   7855.656891     13.346151                    
V 32  10091.652674  -2196.722945 -29588.160623      0.146061                    
EOF
